{"type": "FeatureCollection", "features": [ {"type": "Feature", "properties": {"norad_id": 41836, "name": "HIMAWARI-9", "group": "weather", "lat": 0.013158028105929745, "lon": -155.74205056456523, "alt_km": 35785.54996876923, "timestamp": "2025-12-14T22:38:40.403120+00:00", "meta": {"OBJECT_NAME": "HIMAWARI-9", "OBJECT_ID": "2016-064A", "EPOCH": "2025-12-14T07:14:25.465632", "MEAN_MOTION": 1.00268556, "ECCENTRICITY": 0.00010406, "INCLINATION": 0.0402, "RA_OF_ASC_NODE": 95.6919, "ARG_OF_PERICENTER": 178.7045, "MEAN_ANOMALY": 58.1957, "EPHEMERIS_TYPE": 0, "CLASSIFICATION_TYPE": "U", "NORAD_CAT_ID": 41836, "ELEMENT_SET_NO": 999, "REV_AT_EPOCH": 3335, "BSTAR": 0, "MEAN_MOTION_DOT": -2.57e-06, "MEAN_MOTION_DDOT": 0}, "tle": {"line1": "1 41836U 16064A   25348.30168363 -.00000257  00000+0  00000+0 0  9994", "line2": "2 41836   0.0402  95.6919 0001040 178.7045  58.1957  1.00268556 33358"}}, "geometry": {"type": "Point", "coordinates": [-155.74205056456523, 0.013158028105929745]}}, {"type": "Feature", "properties": {"norad_id": 41866, "name": "GOES 16", "group": "weather", "lat": -0.045596768680297606, "lon": -41.13334258721998, "alt_km": 35778.5312997395, "timestamp": "2025-12-14T22:38:40.403138+00:00", "meta": {"OBJECT_NAME": "GOES 16", "OBJECT_ID": "2016-071A", "EPOCH": "2025-12-14T06:04:24.670848", "MEAN_MOTION": 1.00271691, "ECCENTRICITY": 0.00031554, "INCLINATION": 0.0669, "RA_OF_ASC_NODE": 104.3904, "ARG_OF_PERICENTER": 159.1031, "MEAN_ANOMALY": 166.1074, "EPHEMERIS_TYPE": 0, "CLASSIFICATION_TYPE": "U", "NORAD_CAT_ID": 41866, "ELEMENT_SET_NO": 999, "REV_AT_EPOCH": 3324, "BSTAR": 0, "MEAN_MOTION_DOT": -7.3e-07, "MEAN_MOTION_DDOT": 0}, "tle": {"line1": "1 41866U 16071A   25348.25306332 -.00000073  00000+0  00000+0 0  9995", "line2": "2 41866   0.0669 104.3904 0003155 159.1031 166.1074  1.00271691 33247"}}, "geometry": {"type": "Point", "coordinates": [-41.13334258721998, -0.045596768680297606]}}, {"type": "Feature", "properties": {"norad_id": 41882, "name": "FENGYUN 4A", "group": "weather", "lat": 1.7814649008435255, "lon": -172.7008771595382, "alt_km": 35771.5777966927, "timestamp": "2025-12-14T22:38:40.403160+00:00", "meta": {"OBJECT_NAME": "FENGYUN 4A", "OBJECT_ID": "2016-077A", "EPOCH": "2025-12-14T07:09:33.431904", "MEAN_MOTION": 1.00269016, "ECCENTRICITY": 0.00047308, "INCLINATION": 1.8534, "RA_OF_ASC_NODE": 82.377, "ARG_OF_PERICENTER": 145.431, "MEAN_ANOMALY": 86.618, "EPHEMERIS_TYPE": 0, "CLASSIFICATION_TYPE": "U", "NORAD_CAT_ID": 41882, "ELEMENT_SET_NO": 999, "REV_AT_EPOCH": 3307, "BSTAR": 0, "MEAN_MOTION_DOT": -3.39e-06, "MEAN_MOTION_DDOT": 0}, "tle": {"line1": "1 41882U 16077A   25348.29830361 -.00000339  00000+0  00000+0 0  9992", "line2": "2 41882   1.8534  82.3770 0004730 145.4310  86.6180  1.00269016 33072"}}, "geometry": {"type": "Point", "coordinates": [-172.7008771595382, 1.7814649008435255]}}, {"type": "Feature", "properties": {"norad_id": 41884, "name": "CYGFM05", "group": "weather", "lat": 30.26810800504682, "lon": 89.38208639277762, "alt_km": 423.1390690634571, "timestamp": "2025-12-14T22:38:40.403173+00:00", "meta": {"OBJECT_NAME": "CYGFM05", "OBJECT_ID": "2016-078A", "EPOCH": "2025-12-14T06:53:54.923136", "MEAN_MOTION": 15.47708075, "ECCENTRICITY": 0.00102915, "INCLINATION": 34.9603, "RA_OF_ASC_NODE": 37.0208, "ARG_OF_PERICENTER": 197.1961, "MEAN_ANOMALY": 162.8413, "EPHEMERIS_TYPE": 0, "CLASSIFICATION_TYPE": "U", "NORAD_CAT_ID": 41884, "ELEMENT_SET_NO": 999, "REV_AT_EPOCH": 50000, "BSTAR": 0.0003806598, "MEAN_MOTION_DOT": 0.00020346, "MEAN_MOTION_DDOT": 0}, "tle": {"line1": "1 41884U 16078A   25348.28744124  .00020346  00000+0  38066-3 0  9991", "line2": "2 41884  34.9603  37.0208 0010291 197.1961 162.8413 15.47708075500003"}}, "geometry": {"type": "Point", "coordinates": [89.38208639277762, 30.26810800504682]}}, {"type": "Feature", "properties": {"norad_id": 41885, "name": "CYGFM04", "group": "weather", "lat": -20.201031986911364, "lon": -24.363094817770758, "alt_km": 416.76753070206087, "timestamp": "2025-12-14T22:38:40.403184+00:00", "meta": {"OBJECT_NAME": "CYGFM04", "OBJECT_ID": "2016-078B", "EPOCH": "2025-12-14T07:21:03.014496", "MEAN_MOTION": 15.50439337, "ECCENTRICITY": 0.00095999, "INCLINATION": 34.9358, "RA_OF_ASC_NODE": 11.6292, "ARG_OF_PERICENTER": 223.9636, "MEAN_ANOMALY": 136.0322, "EPHEMERIS_TYPE": 0, "CLASSIFICATION_TYPE": "U", "NORAD_CAT_ID": 41885, "ELEMENT_SET_NO": 999, "REV_AT_EPOCH": 50018, "BSTAR": 0.000397126, "MEAN_MOTION_DOT": 0.00023384, "MEAN_MOTION_DDOT": 0}, "tle": {"line1": "1 41885U 16078B   25348.30628489  .00023384  00000+0  39713-3 0  9995", "line2": "2 41885  34.9358  11.6292 0009599 223.9636 136.0322 15.50439337500185"}}, "geometry": {"type": "Point", "coordinates": [-24.363094817770758, -20.201031986911364]}}, {"type": "Feature", "properties": {"norad_id": 41886, "name": "CYGFM02", "group": "weather", "lat": -7.439159056685036, "lon": -5.0319021423264045, "alt_km": 414.59571384430365, "timestamp": "2025-12-14T22:38:40.403195+00:00", "meta": {"OBJECT_NAME": "CYGFM02", "OBJECT_ID": "2016-078C", "EPOCH": "2025-12-14T08:48:19.081728", "MEAN_MOTION": 15.51827213, "ECCENTRICITY": 0.00112542, "INCLINATION": 34.9446, "RA_OF_ASC_NODE": 9.5368, "ARG_OF_PERICENTER": 224.277, "MEAN_ANOMALY": 135.7053, "EPHEMERIS_TYPE": 0, "CLASSIFICATION_TYPE": "U", "NORAD_CAT_ID": 41886, "ELEMENT_SET_NO": 999, "REV_AT_EPOCH": 50032, "BSTAR": 0.00040407159, "MEAN_MOTION_DOT": 0.00025031, "MEAN_MOTION_DDOT": 0}, "tle": {"line1": "1 41886U 16078C   25348.36688752  .00025031  00000+0  40407-3 0  9994", "line2": "2 41886  34.9446   9.5368 0011254 224.2770 135.7053 15.51827213500326"}}, "geometry": {"type": "Point", "coordinates": [-5.0319021423264045, -7.439159056685036]}}, {"type": "Feature", "properties": {"norad_id": 41887, "name": "CYGFM01", "group": "weather", "lat": 32.42379189160526, "lon": 149.60182210999432, "alt_km": 415.04036579763124, "timestamp": "2025-12-14T22:38:40.403205+00:00", "meta": {"OBJECT_NAME": "CYGFM01", "OBJECT_ID": "2016-078D", "EPOCH": "2025-12-14T06:41:40.644960", "MEAN_MOTION": 15.48289142, "ECCENTRICITY": 0.00098873, "INCLINATION": 34.9434, "RA_OF_ASC_NODE": 39.415, "ARG_OF_PERICENTER": 189.5055, "MEAN_ANOMALY": 170.548, "EPHEMERIS_TYPE": 0, "CLASSIFICATION_TYPE": "U", "NORAD_CAT_ID": 41887, "ELEMENT_SET_NO": 999, "REV_AT_EPOCH": 49994, "BSTAR": 0.00039179884, "MEAN_MOTION_DOT": 0.00021374, "MEAN_MOTION_DDOT": 0}, "tle": {"line1": "1 41887U 16078D   25348.27894265  .00021374  00000+0  39180-3 0  9995", "line2": "2 41887  34.9434  39.4150 0009887 189.5055 170.5480 15.48289142499948"}}, "geometry": {"type": "Point", "coordinates": [149.60182210999432, 32.42379189160526]}}, {"type": "Feature", "properties": {"norad_id": 41888, "name": "CYGFM08", "group": "weather", "lat": 6.500808399598493, "lon": -171.3565237623806, "alt_km": 411.0065360539638, "timestamp": "2025-12-14T22:38:40.403216+00:00", "meta": {"OBJECT_NAME": "CYGFM08", "OBJECT_ID": "2016-078E", "EPOCH": "2025-12-14T06:27:27.596160", "MEAN_MOTION": 15.49498594, "ECCENTRICITY": 0.00117411, "INCLINATION": 34.9468, "RA_OF_ASC_NODE": 22.4535, "ARG_OF_PERICENTER": 212.449, "MEAN_ANOMALY": 147.5511, "EPHEMERIS_TYPE": 0, "CLASSIFICATION_TYPE": "U", "NORAD_CAT_ID": 41888, "ELEMENT_SET_NO": 999, "REV_AT_EPOCH": 50017, "BSTAR": 0.00039919457, "MEAN_MOTION_DOT": 0.00022751, "MEAN_MOTION_DDOT": 0}, "tle": {"line1": "1 41888U 16078E   25348.26906940  .00022751  00000+0  39919-3 0  9999", "line2": "2 41888  34.9468  22.4535 0011741 212.4490 147.5511 15.49498594500177"}}, "geometry": {"type": "Point", "coordinates": [-171.3565237623806, 6.500808399598493]}}, {"type": "Feature", "properties": {"norad_id": 41890, "name": "CYGFM07", "group": "weather", "lat": 10.778529352956102, "lon": 171.18493188105916, "alt_km": 411.9381992619801, "timestamp": "2025-12-14T22:38:40.403227+00:00", "meta": {"OBJECT_NAME": "CYGFM07", "OBJECT_ID": "2016-078G", "EPOCH": "2025-12-14T06:29:47.559840", "MEAN_MOTION": 15.50081165, "ECCENTRICITY": 0.00100153, "INCLINATION": 34.9483, "RA_OF_ASC_NODE": 11.4157, "ARG_OF_PERICENTER": 228.8851, "MEAN_ANOMALY": 131.1007, "EPHEMERIS_TYPE": 0, "CLASSIFICATION_TYPE": "U", "NORAD_CAT_ID": 41890, "ELEMENT_SET_NO": 999, "REV_AT_EPOCH": 50019, "BSTAR": 0.0004013252, "MEAN_MOTION_DOT": 0.00023335, "MEAN_MOTION_DDOT": 0}, "tle": {"line1": "1 41890U 16078G   25348.27068935  .00023335  00000+0  40133-3 0  9995", "line2": "2 41890  34.9483  11.4157 0010015 228.8851 131.1007 15.50081165500195"}}, "geometry": {"type": "Point", "coordinates": [171.18493188105916, 10.778529352956102]}}, {"type": "Feature", "properties": {"norad_id": 41891, "name": "CYGFM03", "group": "weather", "lat": -2.913295927925508, "lon": 4.7441674472216535, "alt_km": 420.2252988246146, "timestamp": "2025-12-14T22:38:40.403237+00:00", "meta": {"OBJECT_NAME": "CYGFM03", "OBJECT_ID": "2016-078H", "EPOCH": "2025-12-14T07:12:31.379616", "MEAN_MOTION": 15.49981967, "ECCENTRICITY": 0.00093997, "INCLINATION": 34.9438, "RA_OF_ASC_NODE": 13.1407, "ARG_OF_PERICENTER": 216.7874, "MEAN_ANOMALY": 143.2204, "EPHEMERIS_TYPE": 0, "CLASSIFICATION_TYPE": "U", "NORAD_CAT_ID": 41891, "ELEMENT_SET_NO": 999, "REV_AT_EPOCH": 50017, "BSTAR": 0.00039413301, "MEAN_MOTION_DOT": 0.00022828, "MEAN_MOTION_DDOT": 0}, "tle": {"line1": "1 41891U 16078H   25348.30036319  .00022828  00000+0  39413-3 0  9996", "line2": "2 41891  34.9438  13.1407 0009399 216.7874 143.2204 15.49981967500175"}}, "geometry": {"type": "Point", "coordinates": [4.7441674472216535, -2.913295927925508]}}]}